[{"OBJECT_NAME":"YAOGAN-35 01A","OBJECT_ID":"2021-101A","EPOCH":"2026-03-09T18:43:20.235648","MEAN_MOTION":15.24952145,"ECCENTRICITY":0.00056881,"INCLINATION":34.9903,"RA_OF_ASC_NODE":183.8731,"ARG_OF_PERICENTER":189.0601,"MEAN_ANOMALY":171.0012,"EPHEMERIS_TYPE":0,"CLASSIFICATION_TYPE":"U","NORAD_CAT_ID":49390,"ELEMENT_SET_NO":999,"REV_AT_EPOCH":24168,"BSTAR":0.00047335489,"MEAN_MOTION_DOT":0.00012075,"MEAN_MOTION_DDOT":0},{"OBJECT_NAME":"STARLINK-32586","OBJECT_ID":"2024-210S","EPOCH":"2026-03-09T07:47:05.017632","MEAN_MOTION":15.27591735,"ECCENTRICITY":0.00027237,"INCLINATION":43.0023,"RA_OF_ASC_NODE":181.9245,"ARG_OF_PERICENTER":285.0175,"MEAN_ANOMALY":75.0375,"EPHEMERIS_TYPE":0,"CLASSIFICATION_TYPE":"U","NORAD_CAT_ID":61975,"ELEMENT_SET_NO":999,"REV_AT_EPOCH":7482,"BSTAR":0.0013300912,"MEAN_MOTION_DOT":0.00036536,"MEAN_MOTION_DDOT":0}]
