YAOGAN-35 01A           
1 49390U 21101A   26068.78009532  .00012075  00000+0  47335-3 0  9995
2 49390  34.9903 183.8731 0005688 189.0601 171.0012 15.24952145241689
STARLINK-32586          
1 61975U 24210S   26068.32436363  .00036536  00000+0  13301-2 0  9991
2 61975  43.0023 181.9245 0002723 285.0175  75.0375 15.27591735 74827
